STARLINK-1441_new
1 15658C 20035B   21326.11895032  .00006483  00000-0  43440-3 0  3264
2 15658  53.0531 268.2100 0001906  59.1006  13.7067 15.06386594    15
STARLINK-1441_old
1 25658C 20035B   21325.16718904  .00000020  00000-0  13203-5 0  3256
2 25658  53.0531 272.4826 0001899  60.2987 248.1839 15.06406428    19
